{"fetched_at":"2026-03-30T06:02:59Z","count":15439,"tles":[{"name":"KUIPER-00128","line1":"1 65957U 25228L   26087.67933657 -.00001135  00000+0 -11988-3 0  9991","line2":"2 65957  51.9000 269.1487 0000719 107.1491 252.9550 14.79937497 26147","category":"Other"}]}